{
  "type": "FeatureCollection",
  "features": [
    {
      "type": "Feature",
      "properties": {
        "norad_id": 66316,
        "name": "QPS-SAR-14 (YACHIHOKO-I)",
        "group": "last-30-days",
        "lat": 38.039784275305436,
        "lon": 173.76026420005135,
        "alt_km": 564.3067465603845,
        "timestamp": "2025-12-05T19:30:24.348229+00:00",
        "meta_object_name": "QPS-SAR-14 (YACHIHOKO-I)",
        "meta_object_id": "2025-252A",
        "meta_epoch": "2025-12-04T15:59:51.959904",
        "meta_mean_motion": 14.97574412,
        "meta_eccentricity": 0.0006845,
        "meta_inclination": 42.0036,
        "meta_ra_of_asc_node": 119.6506,
        "meta_arg_of_pericenter": 95.5659,
        "meta_mean_anomaly": 264.5947,
        "meta_ephemeris_type": 0,
        "meta_classification_type": "U",
        "meta_norad_cat_id": 66316,
        "meta_element_set_no": 999,
        "meta_rev_at_epoch": 432,
        "meta_bstar": 0.0011222,
        "meta_mean_motion_dot": 0.00013169,
        "meta_mean_motion_ddot": 0,
        "tle_line1": "1 66316U 25252A   25338.66657361  .00013169  00000+0  11222-2 0  9998",
        "tle_line2": "2 66316  42.0036 119.6506 0006845  95.5659 264.5947 14.97574412  4329"
      },
      "geometry": {
        "type": "Point",
        "coordinates": [
          173.76026420005135,
          38.039784275305436
        ]
      }
    },
    {
      "type": "Feature",
      "properties": {
        "norad_id": 66317,
        "name": "ELECTRON R/B",
        "group": "last-30-days",
        "lat": -12.67868832537156,
        "lon": -73.81871854050979,
        "alt_km": 198.05800369886947,
        "timestamp": "2025-12-05T19:30:24.348278+00:00",
        "meta_object_name": "ELECTRON R/B",
        "meta_object_id": "2025-252B",
        "meta_epoch": "2025-12-04T16:09:30.388032",
        "meta_mean_motion": 16.20080139,
        "meta_eccentricity": 0.0062158,
        "meta_inclination": 41.9851,
        "meta_ra_of_asc_node": 99.2617,
        "meta_arg_of_pericenter": 80.1526,
        "meta_mean_anomaly": 280.6353,
        "meta_ephemeris_type": 0,
        "meta_classification_type": "U",
        "meta_norad_cat_id": 66317,
        "meta_element_set_no": 999,
        "meta_rev_at_epoch": 455,
        "meta_bstar": 0.0015552484,
        "meta_mean_motion_dot": 0.04912432,
        "meta_mean_motion_ddot": 8.315701e-06,
        "tle_line1": "1 66317U 25252B   25338.67326838  .04912432  83157-5  15552-2 0  9997",
        "tle_line2": "2 66317  41.9851  99.2617 0062158  80.1526 280.6353 16.20080139  4552"
      },
      "geometry": {
        "type": "Point",
        "coordinates": [
          -73.81871854050979,
          -12.67868832537156
        ]
      }
    },
    {
      "type": "Feature",
      "properties": {
        "norad_id": 66319,
        "name": "STARLINK-35442",
        "group": "last-30-days",
        "lat": -42.79098340672072,
        "lon": -57.58257895449368,
        "alt_km": 445.6684221344667,
        "timestamp": "2025-12-05T19:30:24.348295+00:00",
        "meta_object_name": "STARLINK-35442",
        "meta_object_id": "2025-253A",
        "meta_epoch": "2025-12-04T11:12:12.627648",
        "meta_mean_motion": 15.40680264,
        "meta_eccentricity": 0.0001636,
        "meta_inclination": 43.0027,
        "meta_ra_of_asc_node": 33.5509,
        "meta_arg_of_pericenter": 271.7121,
        "meta_mean_anomaly": 88.3548,
        "meta_ephemeris_type": 0,
        "meta_classification_type": "U",
        "meta_norad_cat_id": 66319,
        "meta_element_set_no": 999,
        "meta_rev_at_epoch": 564,
        "meta_bstar": 0.002125,
        "meta_mean_motion_dot": 0.0008945,
        "meta_mean_motion_ddot": 0,
        "tle_line1": "1 66319U 25253A   25338.46681282  .00089450  00000+0  21250-2 0  9997",
        "tle_line2": "2 66319  43.0027  33.5509 0001636 271.7121  88.3548 15.40680264  5642"
      },
      "geometry": {
        "type": "Point",
        "coordinates": [
          -57.58257895449368,
          -42.79098340672072
        ]
      }
    },
    {
      "type": "Feature",
      "properties": {
        "norad_id": 66320,
        "name": "STARLINK-34616",
        "group": "last-30-days",
        "lat": 42.957083761700105,
        "lon": 113.05785701059338,
        "alt_km": 440.21117548652273,
        "timestamp": "2025-12-05T19:30:24.348309+00:00",
        "meta_object_name": "STARLINK-34616",
        "meta_object_id": "2025-253B",
        "meta_epoch": "2025-12-05T06:00:02.000160",
        "meta_mean_motion": 15.41575778,
        "meta_eccentricity": 0.00014037,
        "meta_inclination": 43.0007,
        "meta_ra_of_asc_node": 28.6183,
        "meta_arg_of_pericenter": 285.5578,
        "meta_mean_anomaly": 277.4456,
        "meta_ephemeris_type": 0,
        "meta_classification_type": "U",
        "meta_norad_cat_id": 66320,
        "meta_element_set_no": 999,
        "meta_rev_at_epoch": 592,
        "meta_bstar": -0.031992193,
        "meta_mean_motion_dot": -0.01246124,
        "meta_mean_motion_ddot": 0,
        "tle_line1": "1 66320U 25253B   25339.25002315 -.01246124  00000+0 -31992-1 0  9990",
        "tle_line2": "2 66320  43.0007  28.6183 0001403 285.5578 277.4456 15.41575778  5920"
      },
      "geometry": {
        "type": "Point",
        "coordinates": [
          113.05785701059338,
          42.957083761700105
        ]
      }
    },
    {
      "type": "Feature",
      "properties": {
        "norad_id": 66321,
        "name": "STARLINK-34615",
        "group": "last-30-days",
        "lat": 40.69177076654876,
        "lon": 137.11493457123584,
        "alt_km": 409.67519121520854,
        "timestamp": "2025-12-05T19:30:24.348323+00:00",
        "meta_object_name": "STARLINK-34615",
        "meta_object_id": "2025-253C",
        "meta_epoch": "2025-12-05T06:00:02.000160",
        "meta_mean_motion": 15.50599059,
        "meta_eccentricity": 0.00013383,
        "meta_inclination": 43.0006,
        "meta_ra_of_asc_node": 27.7395,
        "meta_arg_of_pericenter": 268.1382,
        "meta_mean_anomaly": 293.7592,
        "meta_ephemeris_type": 0,
        "meta_classification_type": "U",
        "meta_norad_cat_id": 66321,
        "meta_element_set_no": 999,
        "meta_rev_at_epoch": 577,
        "meta_bstar": -0.0014680735,
        "meta_mean_motion_dot": -0.00085591,
        "meta_mean_motion_ddot": 0,
        "tle_line1": "1 66321U 25253C   25339.25002315 -.00085591  00000+0 -14681-2 0  9996",
        "tle_line2": "2 66321  43.0006  27.7395 0001338 268.1382 293.7592 15.50599059  5775"
      },
      "geometry": {
        "type": "Point",
        "coordinates": [
          137.11493457123584,
          40.69177076654876
        ]
      }
    },
    {
      "type": "Feature",
      "properties": {
        "norad_id": 66322,
        "name": "STARLINK-35292",
        "group": "last-30-days",
        "lat": -30.654081976784468,
        "lon": -13.791089877685739,
        "alt_km": 445.99505464689264,
        "timestamp": "2025-12-05T19:30:24.348358+00:00",
        "meta_object_name": "STARLINK-35292",
        "meta_object_id": "2025-253D",
        "meta_epoch": "2025-12-05T07:16:08.273856",
        "meta_mean_motion": 15.40641042,
        "meta_eccentricity": 0.00012102,
        "meta_inclination": 43.0003,
        "meta_ra_of_asc_node": 28.6428,
        "meta_arg_of_pericenter": 268.8,
        "meta_mean_anomaly": 91.2718,
        "meta_ephemeris_type": 0,
        "meta_classification_type": "U",
        "meta_norad_cat_id": 66322,
        "meta_element_set_no": 999,
        "meta_rev_at_epoch": 577,
        "meta_bstar": 0.0026767576,
        "meta_mean_motion_dot": 0.00112959,
        "meta_mean_motion_ddot": 0,
        "tle_line1": "1 66322U 25253D   25339.30287354  .00112959  00000+0  26768-2 0  9997",
        "tle_line2": "2 66322  43.0003  28.6428 0001210 268.8000  91.2718 15.40641042  5773"
      },
      "geometry": {
        "type": "Point",
        "coordinates": [
          -13.791089877685739,
          -30.654081976784468
        ]
      }
    },
    {
      "type": "Feature",
      "properties": {
        "norad_id": 66323,
        "name": "STARLINK-35309",
        "group": "last-30-days",
        "lat": 16.108326615258466,
        "lon": -172.84727513914524,
        "alt_km": 411.9477598178373,
        "timestamp": "2025-12-05T19:30:24.348372+00:00",
        "meta_object_name": "STARLINK-35309",
        "meta_object_id": "2025-253E",
        "meta_epoch": "2025-12-04T11:55:34.293216",
        "meta_mean_motion": 15.50737349,
        "meta_eccentricity": 0.0003796,
        "meta_inclination": 43.0008,
        "meta_ra_of_asc_node": 32.9093,
        "meta_arg_of_pericenter": 268.5168,
        "meta_mean_anomaly": 91.5257,
        "meta_ephemeris_type": 0,
        "meta_classification_type": "U",
        "meta_norad_cat_id": 66323,
        "meta_element_set_no": 999,
        "meta_rev_at_epoch": 565,
        "meta_bstar": 0.0030261,
        "meta_mean_motion_dot": 0.00182433,
        "meta_mean_motion_ddot": 0,
        "tle_line1": "1 66323U 25253E   25338.49692469  .00182433  00000+0  30261-2 0  9991",
        "tle_line2": "2 66323  43.0008  32.9093 0003796 268.5168  91.5257 15.50737349  5653"
      },
      "geometry": {
        "type": "Point",
        "coordinates": [
          -172.84727513914524,
          16.108326615258466
        ]
      }
    }
  ]
}